NORAD_CAT_ID,OBJECT_NAME,OBJECT_TYPE,EPOCH,MEAN_MOTION,ECCENTRICITY,INCLINATION,RA_OF_ASC_NODE,ARG_OF_PERICENTER,MEAN_ANOMALY,BSTAR,MEAN_MOTION_DOT,MEAN_MOTION_DDOT,TLE_LINE0,TLE_LINE1,TLE_LINE2,SEMIMAJOR_AXIS,PERIOD,APOGEE,PERIGEE,DECAYED
51729.0,STARLINK-3523,PAYLOAD,2023-08-30 10:11:36,15.08841492,0.0001386,53.2184,139.3236,92.8806,267.2345,6.5654e-05,7.57e-06,0.0,0 STARLINK-3523,1 51729U 22016R   23242.42473062  .00000757  00000-0  65654-4 0  9995,2 51729  53.2184 139.3236 0001386  92.8806 267.2345 15.08841492 84336,6917.876,95.437,540.7,538.782,0.0
51729.0,STARLINK-3523,PAYLOAD,2023-08-31 02:05:28,15.08840919,0.0001335,53.2177,136.3508,98.9665,261.1479,2.4599e-05,1.04e-06,0.0,0 STARLINK-3523,1 51729U 22016R   23243.08713294  .00000104  00000-0  24599-4 0  9991,2 51729  53.2177 136.3508 0001335  98.9665 261.1479 15.08840919 85561,6917.878,95.437,540.666,538.819,0.0
51729.0,STARLINK-3523,PAYLOAD,2023-08-31 19:34:42,15.0887629,0.0001497,53.2172,133.0811,87.6217,272.4946,-0.00050885,-8.385e-05,0.0,0 STARLINK-3523,1 51729U 22016R   23243.81576429 -.00008385  00000-0 -50885-3 0  9996,2 51729  53.2172 133.0811 0001497  87.6217 272.4946 15.08876290 84546,6917.769,95.435,540.67,538.599,0.0
51729.0,STARLINK-3523,PAYLOAD,2023-09-01 01:56:15,15.08845196,0.0001582,53.2152,131.8926,83.3499,276.7673,2.6382e-05,1.32e-06,0.0,0 STARLINK-3523,1 51729U 22016R   23244.08073386  .00000132  00000-0  26382-4 0  9996,2 51729  53.2152 131.8926 0001582  83.3499 276.7673 15.08845196 84586,6917.865,95.437,540.824,538.635,0.0
51729.0,STARLINK-3523,PAYLOAD,2023-09-01 22:36:15,15.08849693,0.0001837,53.2148,128.0276,81.1094,279.0106,2.9335e-05,1.79e-06,0.0,0 STARLINK-3523,1 51729U 22016R   23244.94184945  .00000179  00000-0  29335-4 0  9997,2 51729  53.2148 128.0276 0001837  81.1094 279.0106 15.08849693 85840,6917.851,95.437,540.987,538.445,0.0
51729.0,STARLINK-3523,PAYLOAD,2023-09-02 09:43:58,15.08839846,0.0001705,53.2164,125.9434,84.14,275.9786,7.3128e-05,8.76e-06,0.0,0 STARLINK-3523,1 51729U 22016R   23245.40553487  .00000876  00000-0  73128-4 0  9993,2 51729  53.2164 125.9434 0001705  84.1400 275.9786 15.08839846 85914,6917.881,95.438,540.925,538.566,0.0
51729.0,STARLINK-3523,PAYLOAD,2023-09-03 01:37:49,15.08842666,0.0001658,53.2172,122.9674,102.0746,258.0432,8.6244e-05,1.085e-05,0.0,0 STARLINK-3523,1 51729U 22016R   23246.06792997  .00001085  00000-0  86244-4 0  9993,2 51729  53.2172 122.9674 0001658 102.0746 258.0432 15.08842666 84885,6917.872,95.437,540.884,538.59,0.0
51729.0,STARLINK-3523,PAYLOAD,2023-09-03 19:07:04,15.08833949,0.0001458,53.2164,119.6935,116.1667,243.9475,6.2265e-05,7.03e-06,0.0,0 STARLINK-3523,1 51729U 22016R   23246.79657524  .00000703  00000-0  62265-4 0  9992,2 51729  53.2164 119.6935 0001458 116.1667 243.9475 15.08833949 86128,6917.899,95.438,540.773,538.755,0.0
51729.0,STARLINK-3523,PAYLOAD,2023-09-04 01:28:36,15.0883593,0.0001124,53.2175,118.5081,102.6112,257.5006,7.6189e-05,9.25e-06,0.0,0 STARLINK-3523,1 51729U 22016R   23247.06153471  .00000925  00000-0  76189-4 0  9991,2 51729  53.2175 118.5081 0001124 102.6112 257.5006 15.08835930 85037,6917.893,95.438,540.535,538.98,0.0
51729.0,STARLINK-3523,PAYLOAD,2023-09-05 01:19:24,15.08836718,0.0001203,53.2178,114.0477,100.9098,259.203,4.0467e-06,-2.23e-06,0.0,0 STARLINK-3523,1 51729U 22016R   23248.05513998 -.00000223  00000-0  40467-5 0  9998,2 51729  53.2178 114.0477 0001203 100.9098 259.2030 15.08836718 86315,6917.89,95.438,540.588,538.923,0.0
51729.0,STARLINK-3523,PAYLOAD,2023-09-05 23:34:47,15.08842934,0.000105,53.2175,109.8851,97.9388,262.1723,0.00010058,1.313e-05,0.0,0 STARLINK-3523,1 51729U 22016R   23248.98249454  .00001313  00000-0  10058-3 0  9994,2 51729  53.2175 109.8851 0001050  97.9388 262.1723 15.08842934 86451,6917.871,95.437,540.463,539.01,0.0
51729.0,STARLINK-3523,PAYLOAD,2023-09-07 01:00:57,15.08841788,0.0001042,53.2179,105.1277,87.6983,272.4128,6.7137e-05,7.81e-06,0.0,0 STARLINK-3523,1 51729U 22016R   23250.04233756  .00000781  00000-0  67137-4 0  9991,2 51729  53.2179 105.1277 0001042  87.6983 272.4128 15.08841788 86611,6917.875,95.437,540.461,539.019,0.0
51729.0,STARLINK-3523,PAYLOAD,2023-09-07 13:44:03,15.08840634,0.0001324,53.215,102.7492,88.1668,271.9476,1.5495e-05,-4.1e-07,0.0,0 STARLINK-3523,1 51729U 22016R   23250.57226010 -.00000041  00000-0  15495-4 0  9994,2 51729  53.2150 102.7492 0001324  88.1668 271.9476 15.08840634 85563,6917.878,95.438,540.659,538.828,0.0
51729.0,STARLINK-3523,PAYLOAD,2023-09-08 00:51:45,15.08838419,0.0001356,53.2156,100.6673,87.1985,272.9162,3.0434e-05,1.96e-06,0.0,0 STARLINK-3523,1 51729U 22016R   23251.03594154  .00000196  00000-0  30434-4 0  9993,2 51729  53.2156 100.6673 0001356  87.1985 272.9162 15.08838419 86767,6917.885,95.438,540.688,538.812,0.0
51729.0,STARLINK-3523,PAYLOAD,2023-09-08 21:31:45,15.0884328,0.0001089,53.2174,96.8006,90.4637,269.648,0.00012764,1.744e-05,0.0,0 STARLINK-3523,1 51729U 22016R   23251.89705443  .00001744  00000-0  12764-3 0  9997,2 51729  53.2174  96.8006 0001089  90.4637 269.6480 15.08843280 85764,6917.87,95.437,540.489,538.982,0.0
51729.0,STARLINK-3523,PAYLOAD,2023-09-09 13:25:37,15.08838692,0.0001403,53.218,93.83,83.2887,276.8264,6.3243e-05,7.19e-06,0.0,0 STARLINK-3523,1 51729U 22016R   23252.55946034  .00000719  00000-0  63243-4 0  9994,2 51729  53.2180  93.8300 0001403  83.2887 276.8264 15.08838692 85864,6917.884,95.438,540.72,538.779,0.0
51729.0,STARLINK-3523,PAYLOAD,2023-09-09 19:47:09,15.08838722,0.0001171,53.2176,92.6388,88.9248,271.1878,3.5625e-05,2.79e-06,0.0,0 STARLINK-3523,1 51729U 22016R   23252.82442080  .00000279  00000-0  35625-4 0  9990,2 51729  53.2176  92.6388 0001171  88.9248 271.1878 15.08838722 87031,6917.884,95.438,540.559,538.939,0.0
51729.0,STARLINK-3523,PAYLOAD,2023-09-10 13:16:24,15.08831127,0.0001153,53.2173,89.3685,88.0005,272.1119,0.00020481,2.972e-05,0.0,0 STARLINK-3523,1 51729U 22016R   23253.55306277  .00002972  00000-0  20481-3 0  9993,2 51729  53.2173  89.3685 0001153  88.0005 272.1119 15.08831127 86011,6917.908,95.438,540.57,538.975,0.0
51729.0,STARLINK-3523,PAYLOAD,2023-09-10 19:37:56,15.0884554,0.0001223,53.2177,88.1782,89.8374,270.2758,3.8481e-05,3.25e-06,0.0,0 STARLINK-3523,1 51729U 22016R   23253.81801619  .00000325  00000-0  38481-4 0  9992,2 51729  53.2177  88.1782 0001223  89.8374 270.2758 15.08845540 87187,6917.863,95.437,540.575,538.882,0.0
51729.0,STARLINK-3523,PAYLOAD,2023-09-11 13:07:11,15.08836575,0.0001263,53.2175,84.9066,91.8992,268.2145,4.2582e-05,3.9e-06,0.0,0 STARLINK-3523,1 51729U 22016R   23254.54666213  .00000390  00000-0  42582-4 0  9991,2 51729  53.2175  84.9066 0001263  91.8992 268.2145 15.08836575 86169,6917.891,95.438,540.63,538.882,0.0
51729.0,STARLINK-3523,PAYLOAD,2023-09-11 17:53:21,15.088367,0.000119,53.2171,84.0144,89.5353,270.5775,5.094e-05,5.23e-06,0.0,0 STARLINK-3523,1 51729U 22016R   23254.74538210  .00000523  00000-0  50940-4 0  9993,2 51729  53.2171  84.0144 0001190  89.5353 270.5775 15.08836700 87321,6917.89,95.438,540.579,538.932,0.0
51729.0,STARLINK-3523,PAYLOAD,2023-09-12 12:57:58,15.08838673,0.0001126,53.2167,80.4474,81.985,278.1269,3.4393e-05,2.6e-06,0.0,0 STARLINK-3523,1 51729U 22016R   23255.54026184  .00000260  00000-0  34393-4 0  9996,2 51729  53.2167  80.4474 0001126  81.9850 278.1269 15.08838673 86310,6917.884,95.438,540.528,538.97,0.0
51729.0,STARLINK-3523,PAYLOAD,2023-09-12 17:44:07,15.08842278,0.0001144,53.2176,79.5538,86.0859,274.0264,4.0078e-05,3.5e-06,0.0,0 STARLINK-3523,1 51729U 22016R   23255.73897935  .00000350  00000-0  40078-4 0  9994,2 51729  53.2176  79.5538 0001144  86.0859 274.0264 15.08842278 86344,6917.873,95.437,540.53,538.947,0.0
51729.0,STARLINK-3523,PAYLOAD,2023-09-13 04:51:49,15.08847944,0.0001155,53.2175,77.4729,80.8167,279.2956,6.3979e-05,7.31e-06,0.0,0 STARLINK-3523,1 51729U 22016R   23256.20265470  .00000731  00000-0  63979-4 0  9998,2 51729  53.2175  77.4729 0001155  80.8167 279.2956 15.08847944 87541,6917.856,95.437,540.52,538.922,0.0
51729.0,STARLINK-3523,PAYLOAD,2023-09-13 12:48:45,15.08839546,0.0001202,53.2177,75.9857,80.8302,279.2826,5.8853e-05,6.49e-06,0.0,0 STARLINK-3523,1 51729U 22016R   23256.53386020  .00000649  00000-0  58853-4 0  9992,2 51729  53.2177  75.9857 0001202  80.8302 279.2826 15.08839546 86467,6917.882,95.438,540.578,538.915,0.0
51729.0,STARLINK-3523,PAYLOAD,2023-09-13 19:10:17,15.08846807,0.0001154,53.218,74.7973,88.5292,271.5833,0.00010566,1.394e-05,0.0,0 STARLINK-3523,1 51729U 22016R   23256.79881380  .00001394  00000-0  10566-3 0  9995,2 51729  53.2180  74.7973 0001154  88.5292 271.5833 15.08846807 86502,6917.86,95.437,540.523,538.926,0.0
51729.0,STARLINK-3523,PAYLOAD,2023-09-14 11:04:09,15.08833531,0.0001097,53.2183,71.824,90.6822,269.4296,1.6099e-05,-3.2e-07,0.0,0 STARLINK-3523,1 51729U 22016R   23257.46122629 -.00000032  00000-0  16099-4 0  9991,2 51729  53.2183  71.8240 0001097  90.6822 269.4296 15.08833531 87734,6917.9,95.438,540.524,539.006,0.0
51729.0,STARLINK-3523,PAYLOAD,2023-09-14 12:39:32,15.08841963,0.0001675,53.2188,71.5303,108.561,251.5564,-3.65e-05,-8.69e-06,0.0,0 STARLINK-3523,1 51729U 22016R   23257.52746249 -.00000869  00000-0 -36500-4 0  9996,2 51729  53.2188  71.5303 0001675 108.5610 251.5564 15.08841963 86616,6917.874,95.437,540.898,538.581,0.0
51729.0,STARLINK-3523,PAYLOAD,2023-09-14 19:01:06,15.08831018,9.94e-05,53.2177,70.3359,80.5156,279.5949,-6.65e-05,-1.346e-05,0.0,0 STARLINK-3523,1 51729U 22016R   23257.79243205 -.00001346  00000-0 -66500-4 0  9993,2 51729  53.2177  70.3359 0000994  80.5156 279.5949 15.08831018 86650,6917.908,95.438,540.46,539.085,0.0
51729.0,STARLINK-3523,PAYLOAD,2023-09-15 12:30:20,15.08837783,0.0001096,53.2176,67.0641,78.1353,281.9762,4.2697e-05,3.92e-06,0.0,0 STARLINK-3523,1 51729U 22016R   23258.52106810  .00000392  00000-0  42697-4 0  9994,2 51729  53.2176  67.0641 0001096  78.1353 281.9762 15.08837783 86769,6917.887,95.438,540.51,538.994,0.0
